BRITE-CA1 (TORONTO)     
1 40020U 14033L   24175.96638990  .00001323  00000+0  21954-3 0  9998
2 40020  97.8785 312.8502 0084300  70.9198 290.1114 14.69478314535976
OCO 2                   
1 40059U 14035A   24175.92803501  .00000692  00000+0  16364-3 0  9997
2 40059  98.2027 116.6049 0001002  74.7531 285.3778 14.57091773530726
BRITE-PL2 (HEWELIUSZ)   
1 40119U 14049B   24176.20663732  .00002144  00000+0  23385-3 0  9996
2 40119  97.8838 275.8410 0015232 346.0871  13.9924 14.88931911533711
RESURS-P 2              
1 40360U 14087A   24176.18361131  .00025322  00000+0  31663-3 0  9992
2 40360  97.1517 262.7910 0004735 259.5250 100.5474 15.59796616532151
MMS 1                   
1 40482U 15011A   24175.91667824 -.00000960  00000+0  00000+0 0  9992
2 40482  48.1650  10.9280 9097535 146.8355  95.4816  0.28386973  1341
MMS 2                   
1 40483U 15011B   24175.91667824 -.00000961  00000+0  00000+0 0  9994
2 40483  48.1805  10.9108 9098501 146.8454  95.3018  0.28387333  1341
MMS 3                   
1 40484U 15011C   24175.91667824 -.00000960  00000+0  00000+0 0  9994
2 40484  48.1647  10.9283 9097529 146.8353  95.4009  0.28386905  1342
MMS 4                   
1 40485U 15011D   24175.91667824 -.00000960  00000+0  00000+0 0  9995
2 40485  48.1647  10.9283 9097535 146.8352  95.2427  0.28386868  1349
ASTROSAT                
1 40930U 15052A   24176.00278074  .00002070  00000+0  18741-3 0  9999
2 40930   5.9977 310.2095 0008176 174.4651 185.5568 14.79022405472471
DAMPE                   
1 41173U 15078A   24176.20706779  .00001626  00000+0  63632-4 0  9993
2 41173  97.4297 169.7094 0014514 114.4901 245.7853 15.27200694474057
PISAT                   
1 41784U 16059B   24175.56935122  .00001293  00000+0  24310-3 0  9994
2 41784  97.8332 197.2869 0030373 356.2220   3.8751 14.65964611413595
HXMT (HUIYAN)           
1 42758U 17034A   24176.15675989  .00005881  00000+0  32420-3 0  9996
2 42758  43.0131 236.2586 0014356 205.2527 154.7620 15.14601498387916
FLYING LAPTOP           
1 42831U 17042G   24175.94087298  .00001495  00000+0  14065-3 0  9995
2 42831  97.3860 356.4942 0014087  58.1542 302.1049 14.95197692378146
ZHANGHENG 1 (CSES)      
1 43194U 18015C   24176.18475848  .00012122  00000+0  55464-3 0  9995
2 43194  97.6114 319.9738 0012786 130.5349 229.7001 15.20603396354750
SALSAT                  
1 46495U 20068K   24175.88660088  .00006078  00000+0  34514-3 0  9997
2 46495  97.8171 135.3468 0011922 293.9660  66.0322 15.13258916205325
IXPE                    
1 49954U 21121A   24175.91667824  .00005675  00000+0  39698-3 0  9990
2 49954   0.2318 343.4512 0009177  20.7599  54.5732 14.98284760  5803
<!DOCTYPE html PUBLIC "-//W3C//DTD XHTML 1.0 Strict//EN" "http://www.w3.org/TR/xhtml1/DTD/xhtml1-strict.dtd">
<html xmlns="http://www.w3.org/1999/xhtml">
<head>
<meta http-equiv="Content-Type" content="text/html; charset=iso-8859-1"/>
<title>404 - File Not Found.</title>
<style type="text/css">
<!--
body{margin:0;font-size:.7em;font-family:Verdana, Arial, Helvetica, sans-serif;background:#EEEEEE;}
fieldset{padding:0 15px 10px 15px;}
h1{font-size:2.4em;margin:0;color:#FFF;}
h2{font-size:1.7em;margin:0;color:#CC0000;}
h3{font-size:1.2em;margin:10px 0 0 0;color:#000000;}
#header{width:96%;margin:0 0 0 0;padding:6px 2% 6px 2%;font-family:"trebuchet MS", Verdana, sans-serif;color:#FFF;
background-color:#555555;}
#content{margin:0 0 0 2%;position:relative;}
.content-container{background:#FFF;width:96%;margin-top:8px;padding:10px;position:relative;}
-->
</style>
</head>
<body>
<div id="header"><h1>Server Error</h1></div>
<div id="content">
 <div class="content-container"><fieldset>
  <h2>404 - File Not Found.</h2>
  <h3>File not found for celestrak.org/NORAD/elements/ses.txt.</h3>
  <h3>Please contact <a href="mailto:ts.kelso@celestrak.org">ts.kelso@celestrak.org</a> if you have other questions.</h3>
 </fieldset></div>
</div>
</body>
</html>
ISS (ZARYA)             
1 25544U 98067A   24176.37742947  .00017246  00000+0  31221-3 0  9994
2 25544  51.6415 279.6692 0010792   1.9083 110.8234 15.49700375459665
CSS (TIANHE)            
1 48274U 21035A   24176.00600258  .00037405  00000+0  41049-3 0  9996
2 48274  41.4689  41.5342 0005057 269.9472  90.0788 15.62463612180168
ISS (NAUKA)             
1 49044U 21066A   24175.80163596  .00016438  00000+0  29819-3 0  9996
2 49044  51.6420 282.5238 0011049   0.7596 137.5573 15.49678122165629
FREGAT DEB              
1 49271U 11037PF  24175.86273958  .00035785  00000+0  70228-1 0  9999
2 49271  51.6803 328.8336 1004278 139.1358 228.9359 12.17427704136017
CSS (WENTIAN)           
1 53239U 22085A   24175.68641032  .00036763  00000+0  40391-3 0  9992
2 53239  41.4689  43.4839 0005039 268.2869  91.7393 15.62440125102471
CSS (MENGTIAN)          
1 54216U 22143A   24175.68641032  .00036763  00000+0  40391-3 0  9993
2 54216  41.4689  43.4839 0005039 268.2869  91.7393 15.62440125 93623
ISS DEB                 
1 58229U 98067WC  24175.54190251  .01719720  11858-4  87808-3 0  9990
2 58229  51.6162 253.0485 0012652 337.2375  22.8081 16.19581718 36728
BEAK                    
1 58612U 98067WD  24175.65803040  .01096058  76904-3  96827-3 0  9990
2 58612  51.6231 257.6700 0014117 338.8308  21.2121 16.12232577 29620
TIANZHOU-7              
1 58811U 24013A   24175.68641032  .00036763  00000+0  40391-3 0  9996
2 58811  41.4689  43.4839 0005039 268.2869  91.7393 15.62440125179713
CYGNUS NG-20            
1 58898U 24021A   24175.80163596  .00016438  00000+0  29819-3 0  9997
2 58898  51.6420 282.5238 0011049   0.7596 137.5573 15.49678122 22325
PROGRESS-MS 26          
1 58961U 24029A   24175.80163596  .00016438  00000+0  29819-3 0  9996
2 58961  51.6420 282.5238 0011049   0.7596 137.5573 15.49678122 20076
CREW DRAGON 8           
1 59097U 24042A   24175.80163596  .00016438  00000+0  29819-3 0  9992
2 59097  51.6420 282.5238 0011049   0.7596 137.5573 15.49678122 17286
SOYUZ-MS 25             
1 59294U 24055A   24175.80163596  .00016438  00000+0  29819-3 0  9995
2 59294  51.6420 282.5238 0011049   0.7596 137.5573 15.49678122 14136
MICROORBITER-1          
1 59483U 98067WF  24175.65736207  .00124583  00000+0  11215-2 0  9998
2 59483  51.6326 278.8401 0010878 330.8100  29.2287 15.67233886 11497
CURTIS                  
1 59507U 98067WG  24175.66989662  .00081982  00000+0  87227-3 0  9993
2 59507  51.6328 279.6747 0008115 331.4492  28.6057 15.63260153 11491
KASHIWA                 
1 59508U 98067WH  24175.74550320  .00154645  00000+0  12600-2 0  9997
2 59508  51.6309 277.9212 0012100 332.9244  27.1121 15.69539618 11520
1998-067WJ              
1 59559U 98067WJ  24175.65658235  .00077404  00000+0  87011-3 0  9993
2 59559  51.6356 280.3499 0007739 311.3171  48.7156 15.61876419 10357
1998-067WK              
1 59560U 98067WK  24175.68150554  .00193759  00000+0  14518-2 0  9992
2 59560  51.6331 278.2515 0014310 321.6062  38.3917 15.71378813 10315
1998-067WL              
1 59561U 98067WL  24175.57880707  .00035280  00000+0  49279-3 0  9998
2 59561  51.6368 282.0804 0004812 318.7097  41.3530 15.56503917 10291
BURSTCUBE               
1 59562U 98067WM  24175.72283987  .00083297  00000+0  92607-3 0  9997
2 59562  51.6362 280.0440 0008342 335.7586  24.3015 15.62124394 10344
SNOOPI                  
1 59563U 98067WN  24175.75701946  .00072308  00000+0  86209-3 0  9993
2 59563  51.6374 280.2740 0006974 336.5815  23.4860 15.60382617 10346
SHENZHOU-18 (SZ-18)     
1 59591U 24078A   24175.68641032  .00036763  00000+0  40391-3 0  9993
2 59591  41.4689  43.4839 0005039 268.2869  91.7393 15.62440125  8811
1998-067WP              
1 59596U 98067WP  24175.66545351  .00102837  00000+0  10263-2 0  9992
2 59596  51.6340 279.6544 0009474 317.1230  42.9025 15.64770798 10370
1998-067WQ              
1 59597U 98067WQ  24175.79025241  .00107652  00000+0  10654-2 0  9992
2 59597  51.6371 278.9986 0009568 317.5840  42.4415 15.64959603 10363
SZ-17 MODULE            
1 59624U 23164C   24175.85360704  .00033905  00000+0  32528-3 0  9996
2 59624  41.4778  42.1498 0008003 296.9346  63.0677 15.65876705  8587
PROGRESS-MS 27          
1 59913U 24103A   24175.51892768  .00018015  00000+0  32608-3 0  9998
2 59913  51.6399 283.9288 0010751 358.0495   2.0450 15.49669687459538
STARLINER CFT-1         
1 59968U 24109A   24175.80163596  .00016438  00000+0  29819-3 0  9993
2 59968  51.6420 282.5238 0011049   0.7596 137.5573 15.49678122  2782
TDRS 3                  
1 19548U 88091B   24175.87235803 -.00000293  00000+0  00000+0 0  9991
2 19548  13.1572 345.8758 0033486 342.6608 209.1680  1.00268708118133
HST                     
1 20580U 90037B   24175.69554143  .00005514  00000+0  25572-3 0  9998
2 20580  28.4695 301.5256 0003043 103.4081 256.6851 15.17831856678021
TDRS 5                  
1 21639U 91054B   24175.44037510 -.00000295  00000+0  00000+0 0  9998
2 21639  14.1618 359.0622 0002815 212.1960 157.2121  1.00266877120467
TDRS 6                  
1 22314U 93003B   24175.97275590 -.00000291  00000+0  00000+0 0  9991
2 22314  14.1629   2.3644 0011098 154.0044  60.6252  1.00274167115155
TDRS 7                  
1 23613U 95035B   24175.97052292 -.00000197  00000+0  00000+0 0  9998
2 23613  13.6784 353.1848 0028307  70.7235 283.0229  1.00272873105903
ISS (ZARYA)             
1 25544U 98067A   24176.37742947  .00017246  00000+0  31221-3 0  9994
2 25544  51.6415 279.6692 0010792   1.9083 110.8234 15.49700375459665
LANDSAT 7               
1 25682U 99020A   24176.21007156  .00000588  00000+0  12965-3 0  9991
2 25682  97.8869 202.6671 0001350  81.4845 352.1554 14.60711256340224
TERRA                   
1 25994U 99068A   24176.21759715  .00000618  00000+0  13860-3 0  9993
2 25994  98.0478 239.4988 0001909  24.6989  41.5523 14.59824442304197
